{
  "type": "FeatureCollection",
  "features": [
    {
      "type": "Feature",
      "properties": {
        "norad_id": 49537,
        "name": "COSMOS 1408 DEB",
        "group": "cosmos-1408-debris",
        "lat": NaN,
        "lon": NaN,
        "alt_km": NaN,
        "timestamp": "2025-12-01T03:12:44.546798+00:00",
        "meta": {
          "OBJECT_NAME": "COSMOS 1408 DEB",
          "OBJECT_ID": "1982-092AA",
          "EPOCH": "2025-11-30T13:50:53.595744",
          "MEAN_MOTION": 16.25613918,
          "ECCENTRICITY": 0.00139118,
          "INCLINATION": 82.512,
          "RA_OF_ASC_NODE": 108.1395,
          "ARG_OF_PERICENTER": 305.4243,
          "MEAN_ANOMALY": 54.5748,
          "EPHEMERIS_TYPE": 0,
          "CLASSIFICATION_TYPE": "U",
          "NORAD_CAT_ID": 49537,
          "ELEMENT_SET_NO": 999,
          "REV_AT_EPOCH": 22389,
          "BSTAR": 0.00099995053,
          "MEAN_MOTION_DOT": 0.03014048,
          "MEAN_MOTION_DDOT": -1.222266e-06
        }
      },
      "geometry": {
        "type": "Point",
        "coordinates": [
          NaN,
          NaN
        ]
      }
    },
    {
      "type": "Feature",
      "properties": {
        "norad_id": 50032,
        "name": "COSMOS 1408 DEB",
        "group": "cosmos-1408-debris",
        "lat": NaN,
        "lon": NaN,
        "alt_km": NaN,
        "timestamp": "2025-12-01T03:12:44.546817+00:00",
        "meta": {
          "OBJECT_NAME": "COSMOS 1408 DEB",
          "OBJECT_ID": "1982-092RU",
          "EPOCH": "2025-11-30T17:45:03.777984",
          "MEAN_MOTION": 15.45503898,
          "ECCENTRICITY": 0.0014594,
          "INCLINATION": 82.5643,
          "RA_OF_ASC_NODE": 70.8048,
          "ARG_OF_PERICENTER": 255.7531,
          "MEAN_ANOMALY": 104.2097,
          "EPHEMERIS_TYPE": 0,
          "CLASSIFICATION_TYPE": "U",
          "NORAD_CAT_ID": 50032,
          "ELEMENT_SET_NO": 999,
          "REV_AT_EPOCH": 22418,
          "BSTAR": 0.00012154,
          "MEAN_MOTION_DOT": 5.89e-05,
          "MEAN_MOTION_DDOT": 0
        }
      },
      "geometry": {
        "type": "Point",
        "coordinates": [
          NaN,
          NaN
        ]
      }
    },
    {
      "type": "Feature",
      "properties": {
        "norad_id": 50058,
        "name": "COSMOS 1408 DEB",
        "group": "cosmos-1408-debris",
        "lat": NaN,
        "lon": NaN,
        "alt_km": NaN,
        "timestamp": "2025-12-01T03:12:44.546826+00:00",
        "meta": {
          "OBJECT_NAME": "COSMOS 1408 DEB",
          "OBJECT_ID": "1982-092SW",
          "EPOCH": "2025-11-30T18:39:42.194016",
          "MEAN_MOTION": 15.63043933,
          "ECCENTRICITY": 0.0016342,
          "INCLINATION": 82.6124,
          "RA_OF_ASC_NODE": 81.8497,
          "ARG_OF_PERICENTER": 141.6588,
          "MEAN_ANOMALY": 218.5835,
          "EPHEMERIS_TYPE": 0,
          "CLASSIFICATION_TYPE": "U",
          "NORAD_CAT_ID": 50058,
          "ELEMENT_SET_NO": 999,
          "REV_AT_EPOCH": 22617,
          "BSTAR": 0.00038628,
          "MEAN_MOTION_DOT": 0.00035428,
          "MEAN_MOTION_DDOT": 0
        }
      },
      "geometry": {
        "type": "Point",
        "coordinates": [
          NaN,
          NaN
        ]
      }
    },
    {
      "type": "Feature",
      "properties": {
        "norad_id": 50404,
        "name": "COSMOS 1408 DEB",
        "group": "cosmos-1408-debris",
        "lat": NaN,
        "lon": NaN,
        "alt_km": NaN,
        "timestamp": "2025-12-01T03:12:44.546833+00:00",
        "meta": {
          "OBJECT_NAME": "COSMOS 1408 DEB",
          "OBJECT_ID": "1982-092ADS",
          "EPOCH": "2025-11-30T18:01:04.622016",
          "MEAN_MOTION": 15.11341858,
          "ECCENTRICITY": 0.017765,
          "INCLINATION": 82.2072,
          "RA_OF_ASC_NODE": 227.2837,
          "ARG_OF_PERICENTER": 240.5069,
          "MEAN_ANOMALY": 117.8342,
          "EPHEMERIS_TYPE": 0,
          "CLASSIFICATION_TYPE": "U",
          "NORAD_CAT_ID": 50404,
          "ELEMENT_SET_NO": 999,
          "REV_AT_EPOCH": 21012,
          "BSTAR": 0.0028716,
          "MEAN_MOTION_DOT": 0.0007156,
          "MEAN_MOTION_DDOT": 0
        }
      },
      "geometry": {
        "type": "Point",
        "coordinates": [
          NaN,
          NaN
        ]
      }
    },
    {
      "type": "Feature",
      "properties": {
        "norad_id": 50621,
        "name": "COSMOS 1408 DEB",
        "group": "cosmos-1408-debris",
        "lat": NaN,
        "lon": NaN,
        "alt_km": NaN,
        "timestamp": "2025-12-01T03:12:44.546840+00:00",
        "meta": {
          "OBJECT_NAME": "COSMOS 1408 DEB",
          "OBJECT_ID": "1982-092ALR",
          "EPOCH": "2025-11-30T18:46:27.062688",
          "MEAN_MOTION": 15.55723111,
          "ECCENTRICITY": 0.0028896,
          "INCLINATION": 82.5696,
          "RA_OF_ASC_NODE": 86.6184,
          "ARG_OF_PERICENTER": 196.427,
          "MEAN_ANOMALY": 163.6052,
          "EPHEMERIS_TYPE": 0,
          "CLASSIFICATION_TYPE": "U",
          "NORAD_CAT_ID": 50621,
          "ELEMENT_SET_NO": 999,
          "REV_AT_EPOCH": 22064,
          "BSTAR": 0.00042675,
          "MEAN_MOTION_DOT": 0.00030027,
          "MEAN_MOTION_DDOT": 0
        }
      },
      "geometry": {
        "type": "Point",
        "coordinates": [
          NaN,
          NaN
        ]
      }
    }
  ]
}